FENGYUN 2H              
1 43491U 18050A   26179.96262558 -.00000121  00000+0  00000+0 0  9996
2 43491   3.0612  78.9433 0001732 121.8190 142.1582  1.00269771 29551
METOP-C                 
1 43689U 18087A   26179.89311871  .00000095  00000+0  63057-4 0  9995
2 43689  98.6640 239.2826 0002080 114.8099 245.3295 14.21515052396496
GEO-KOMPSAT-2A          
1 43823U 18100A   26179.97224562 -.00000332  00000+0  00000+0 0  9999
2 43823   0.0430 129.0252 0002395 321.3321 304.9795  1.00271731 27743
METEOR-M2 2             
1 44387U 19038A   26179.97576862 -.00000184  00000+0 -59768-4 0  9995
2 44387  98.9143 167.4351 0001574  31.4528 328.6745 14.24368328362972
ARKTIKA-M 1             
1 47719U 21016A   26177.96120627 -.00000323  00000+0  00000+0 0  9991
2 47719  63.2527  56.2167 7291839 269.9811  14.5584  2.00619221 38985
FENGYUN 3E              
1 49008U 21062A   26179.96967034 -.00000124  00000+0 -37629-4 0  9990
2 49008  98.7490 183.2460 0002737  67.3478 292.7987 14.19905139258256
GOES 18                 
1 51850U 22021A   26179.70585358  .00000108  00000+0  00000+0 0  9999
2 51850   0.0196 178.3021 0000731 312.1571 263.4539  1.00273873  6706
NOAA 21 (JPSS-2)        
1 54234U 22150A   26179.94608473  .00000049  00000+0  43705-4 0  9999
2 54234  98.7061 118.5378 0002310 133.7774 226.3594 14.19538529188210
METEOSAT-12 (MTG-I1)    
1 54743U 22170C   26179.94684640  .00000004  00000+0  00000+0 0  9993
2 54743   0.7510  24.8222 0003688  72.6401 160.1379  1.00275817 13094
TIANMU-1 03             
1 55973U 23039A   26179.94857191  .00014339  00000+0  27976-3 0  9998
2 55973  97.5228 354.3808 0003861  70.5738 289.5929 15.47610733182656
TIANMU-1 04             
1 55974U 23039B   26179.93347006  .00014460  00000+0  27617-3 0  9994
2 55974  97.5168 353.5194 0004262  63.6898 296.4789 15.48221819182661
TIANMU-1 05             
1 55975U 23039C   26179.92991042  .00014246  00000+0  27867-3 0  9998
2 55975  97.5212 353.9717 0003840  86.1728 273.9961 15.47536416182630
TIANMU-1 06             
1 55976U 23039D   26180.00222480  .00014150  00000+0  27123-3 0  9992
2 55976  97.5220 354.6946 0004050  81.1878 278.9831 15.48124206182673
FENGYUN 3G              
1 56232U 23055A   26179.81780543  .00021759  00000+0  34638-3 0  9994
2 56232  49.9934 286.0729 0007291 344.8745  15.2003 15.53135617181813
METEOR-M2 3             
1 57166U 23091A   26179.97279623 -.00000001  00000+0  18258-4 0  9999
2 57166  98.6078 234.7098 0004886 126.9404 233.2223 14.24047692156198
TIANMU-1 07             
1 57399U 23101A   26179.93887471  .00005937  00000+0  20734-3 0  9994
2 57399  97.2589 230.3375 0004329  97.6928 262.4805 15.29940203163447
TIANMU-1 08             
1 57400U 23101B   26179.97088840  .00005785  00000+0  20202-3 0  9995
2 57400  97.2578 230.1378 0005629  86.7055 273.4830 15.29944924163447
TIANMU-1 09             
1 57401U 23101C   26179.95405236  .00006079  00000+0  21197-3 0  9997
2 57401  97.2536 229.5311 0004911 100.6180 259.5614 15.29979903163449
TIANMU-1 10             
1 57402U 23101D   26179.98731594  .00005985  00000+0  20886-3 0  9999
2 57402  97.2615 230.6260 0006424  96.1647 264.0326 15.29952788163445
FENGYUN 3F              
1 57490U 23111A   26179.95330997  .00000034  00000+0  36537-4 0  9997
2 57490  98.6834 249.7427 0001518  84.5228 275.6121 14.19940908150537
ARKTIKA-M 2             
1 58584U 23198A   26177.23312466  .00000156  00000+0  00000+0 0  9993
2 58584  63.2200 153.3551 6904874 267.3978  18.7558  2.00610703 18505
TIANMU-1 11             
1 58645U 23205A   26179.97957829  .00005158  00000+0  19662-3 0  9996
2 58645  97.3439 201.3516 0007564 333.4982  26.5870 15.27112677139322
TIANMU-1 12             
1 58646U 23205B   26180.01585220  .00005455  00000+0  20848-3 0  9994
2 58646  97.3429 201.1404 0005492 312.9942  47.0836 15.27011080139317
TIANMU-1 13             
1 58647U 23205C   26179.98352404  .00005146  00000+0  19732-3 0  9992
2 58647  97.3456 201.3832 0004994 288.0877  71.9818 15.26932953139306
TIANMU-1 14             
1 58648U 23205D   26179.96838519  .00005088  00000+0  19483-3 0  9995
2 58648  97.3392 200.5408 0005845 294.7542  65.3089 15.26977424139304
TIANMU-1 19             
1 58660U 23208A   26179.91588438  .00007418  00000+0  24455-3 0  9993
2 58660  97.4516 296.2766 0003486 270.6466  89.4376 15.31745516139120
TIANMU-1 20             
1 58661U 23208B   26179.94457542  .00007733  00000+0  24550-3 0  9994
2 58661  97.4459 296.9531 0005554 282.1743  77.8877 15.32935726139221
TIANMU-1 21             
1 58662U 23208C   26179.91511405  .00008792  00000+0  25892-3 0  9997
2 58662  97.4517 299.6551 0005677 271.9305  88.1288 15.35279031139364
TIANMU-1 22             
1 58663U 23208D   26179.96702942  .00006759  00000+0  22674-3 0  9997
2 58663  97.4513 296.2541 0002306 309.5398  50.5639 15.31216955139139
TIANMU-1 15             
1 58700U 24004A   26179.95981052  .00005114  00000+0  19679-3 0  9999
2 58700  97.4663   6.1514 0005605 302.5976  57.4721 15.26827380137573
TIANMU-1 16             
1 58701U 24004B   26179.95030490  .00005027  00000+0  19329-3 0  9996
2 58701  97.4611   5.3675 0004722 322.4608  37.6301 15.26864241137579
TIANMU-1 17             
1 58702U 24004C   26179.93576769  .00005162  00000+0  19840-3 0  9997
2 58702  97.4638   5.8422 0004386 330.5676  29.5315 15.26862787137562
TIANMU-1 18             
1 58703U 24004D   26179.97650770  .00004969  00000+0  19157-3 0  9992
2 58703  97.4655   6.1439 0003554 306.5488  53.5423 15.26782434137572
INSAT-3DS               
1 58990U 24033A   26179.96314558 -.00000144  00000+0  00000+0 0  9997
2 58990   0.0655  98.8926 0001502 348.8521 258.1003  1.00270127 47189
METEOR-M2 4             
1 59051U 24039A   26179.93054891  .00000007  00000+0  22722-4 0  9997
2 59051  98.7015 139.0812 0007877 129.5928 230.5947 14.22430693120930
GOES 19                 
1 60133U 24119A   26179.93194978 -.00000237  00000+0  00000+0 0  9996
2 60133   0.0252 130.5669 0000486  10.6521  36.1121  1.00272859  7080
MTG-S1                  
1 64723U 25143A   26179.94675973  .00000004  00000+0  00000+0 0  9994
2 64723   0.5940 341.4285 0002749 267.3096   8.6673  1.00272158  3531
METOP-SGA1              
1 65159U 25172A   26179.69698343  .00000038  00000+0  38354-4 0  9993
2 65159  98.6641 239.1808 0008009  20.6446 339.5052 14.19816725 45428
FENGYUN 3H              
1 65815U 25219A   26179.80890789  .00000044  00000+0  41078-4 0  9999
2 65815  98.6769 120.3521 0001475  68.5537 291.5797 14.19922345 39032
OSCAR 7 (AO-7)          
1 07530U 74089B   26179.96480655 -.00000028  00000+0  11545-3 0  9990
2 07530 101.9899 193.3341 0012644 108.2941   6.1955 12.53698303361994
PHASE 3B (AO-10)        
1 14129U 83058B   26177.59526761 -.00000217  00000+0  00000+0 0  9994
2 14129  25.9202 218.0092 6007622 118.2548 314.1516  2.05872938295688
UOSAT 2 (UO-11)         
1 14781U 84021B   26179.90019892  .00001272  00000+0  13493-3 0  9993
2 14781  97.8064 145.3443 0008606 136.5806 223.6091 14.90811696258878
LUSAT (LO-19)           
1 20442U 90005G   26179.62402342  .00000109  00000+0  55609-4 0  9992
2 20442  98.8846 201.7446 0011782 167.3246 192.8236 14.34126405904036
EYESAT A (AO-27)        
1 22825U 93061C   26179.74707028  .00000085  00000+0  49173-4 0  9998
2 22825  98.6877 247.1562 0009444  69.9517 290.2682 14.30945093708654
ITAMSAT (IO-26)         
1 22826U 93061D   26179.93274172  .00000091  00000+0  51030-4 0  9991
2 22826  98.6824 247.2605 0009801  54.2852 305.9241 14.31372383708991
RADIO ROSTO (RS15)      
1 23439U 94085A   26179.73425208 -.00000046  00000+0 -88474-4 0  9999
2 23439  64.8176 284.5419 0156334   1.7428 358.4010 11.27583385297206
JAS-2 (FO-29)           
1 24278U 96046B   26179.54904671 -.00000019  00000+0  14056-4 0  9999
2 24278  98.5229  26.8641 0350869  67.0358 296.7398 13.53274843474703
TECHSAT 1B (GO-32)      
1 25397U 98043D   26179.93544826  .00000052  00000+0  42491-4 0  9996
2 25397  99.0072 172.9906 0001643 141.4030 218.7265 14.24430601453004
ISS (ZARYA)             
1 25544U 98067A   26179.67039743  .00005693  00000+0  10963-3 0  9998
2 25544  51.6320 243.2491 0004267 243.5322 116.5229 15.49468267573535
PCSAT (NO-44)           
1 26931U 01043C   26179.54409891  .00000092  00000+0  65165-4 0  9991
2 26931  67.0491 214.8978 0006039 265.3473  94.6939 14.31959587292079
SAUDISAT 1C (SO-50)     
1 27607U 02058C   26179.95586503  .00000880  00000+0  12106-3 0  9991
2 27607  64.5520  92.5735 0074988 260.2770  98.9861 14.83070324266206
CUTE-1 (CO-55)          
1 27844U 03031E   26179.48757997  .00000272  00000+0  13667-3 0  9999
2 27844  98.6736 187.9043 0010221 146.4668 213.7159 14.24342303193286
CUBESAT XI-IV (CO-57)   
1 27848U 03031J   26179.55199356  .00000229  00000+0  11941-3 0  9995
2 27848  98.6768 187.6716 0009707 163.9321 196.2167 14.23626546192990
MOZHAETS 4 (RS22)       
1 27939U 03042A   26179.97883836  .00001410  00000+0  22527-3 0  9992
2 27939  98.3466   4.6711 0010117 227.4532 293.1661 14.73489146217287
CUBESAT XI-V            
1 28895U 05043F   26179.68160511  .00001412  00000+0  22953-3 0  9998
2 28895  98.2995 335.5454 0014446 164.3904 195.7751 14.72661458103442
CUTE-1.7+APD II (CO-65) 
1 32785U 08021C   26179.91553848  .00004670  00000+0  29489-3 0  9995
2 32785  97.8271 161.5787 0008562   1.2386 358.8861 15.09559374986962
SEEDS II (CO-66)        
1 32791U 08021J   26179.95056021  .00017427  00000+0  54621-3 0  9997
2 32791  97.7514 178.4126 0000917 200.7321 159.3883 15.33144634989094
YUBILEINY (RS30)        
1 32953U 08025A   26179.92873647  .00000083  00000+0  52497-3 0  9998
2 32953  82.5041 348.1349 0018523 286.7909  73.1139 12.43180281821157
KKS-1 (KISEKI)          
1 33499U 09002H   26179.86068178  .00001248  00000+0  15977-3 0  9994
2 33499  98.1186 102.4879 0006423 249.5116 110.5407 14.83152106937926
